[{"OBJECT_NAME":"LUR-1","OBJECT_ID":"2024-149AQ","EPOCH":"2026-03-09T19:05:45.284064","MEAN_MOTION":15.28658648,"ECCENTRICITY":0.00027765,"INCLINATION":97.379,"RA_OF_ASC_NODE":148.4255,"ARG_OF_PERICENTER":309.1571,"MEAN_ANOMALY":50.9421,"EPHEMERIS_TYPE":0,"CLASSIFICATION_TYPE":"U","NORAD_CAT_ID":60506,"ELEMENT_SET_NO":999,"REV_AT_EPOCH":8678,"BSTAR":0.0003298462,"MEAN_MOTION_DOT":9.121e-5,"MEAN_MOTION_DDOT":0},{"OBJECT_NAME":"STARLINK-33814","OBJECT_ID":"2025-076P","EPOCH":"2026-03-09T00:53:51.705600","MEAN_MOTION":15.27607641,"ECCENTRICITY":0.0001404,"INCLINATION":43.0039,"RA_OF_ASC_NODE":325.1199,"ARG_OF_PERICENTER":269.9064,"MEAN_ANOMALY":90.1627,"EPHEMERIS_TYPE":0,"CLASSIFICATION_TYPE":"U","NORAD_CAT_ID":63582,"ELEMENT_SET_NO":999,"REV_AT_EPOCH":5173,"BSTAR":0.0017192094,"MEAN_MOTION_DOT":0.00047391,"MEAN_MOTION_DDOT":0}]
